{
  "norad_id": 53849,
  "name": "STARLINK-4770",
  "history": [
    {
      "epoch": "2026-03-28T18:23:46.699872",
      "apogee_km": 540.5270528148412,
      "perigee_km": 538.9575243618456,
      "latitude_deg": -43.03594609887486,
      "longitude_deg": -1.5147779199760407,
      "semi_major_axis_km": 6917.879288588343,
      "eccentricity": 0.00011344,
      "inclination_deg": 53.2164,
      "raan_deg": 208.3356,
      "arg_perigee_deg": 73.3684,
      "mean_anomaly_deg": 286.7433,
      "mean_motion_rev_day": 15.0884036
    }
  ]
}