{"fetched_at":"2026-03-29T16:36:15Z","count":15609,"tles":[{"name":"STARLINK-4770","line1":"1 53849U 22114AH  26087.76651273  .00000366  00000+0  41079-4 0  9998","line2":"2 53849  53.2164 208.3356 0001134  73.3684 286.7433 15.08840360195855","category":"Starlink"}]}